STARLINK-31903          
1 59845U 24097L   26068.53276043  .00000275  00000+0  19519-4 0  9997
2 59845  43.0009 268.2455 0000847 264.0258  96.0497 15.27567682101979
HAWK-11B                
1 62379U 24247C   26068.44730104  .00009093  00000+0  32842-3 0  9993
2 62379  45.0161 115.7610 0004690 333.0326  27.0314 15.28847070 67738
